NORAD_CAT_ID,OBJECT_NAME,OBJECT_TYPE,EPOCH,MEAN_MOTION,ECCENTRICITY,INCLINATION,RA_OF_ASC_NODE,ARG_OF_PERICENTER,MEAN_ANOMALY,BSTAR,MEAN_MOTION_DOT,MEAN_MOTION_DDOT,TLE_LINE0,TLE_LINE1,TLE_LINE2,SEMIMAJOR_AXIS,PERIOD,APOGEE,PERIGEE,DECAYED
53558.0,STARLINK-4494,PAYLOAD,2024-04-25 15:39:41,15.08839767,0.000139,53.2186,245.1174,101.6585,258.4563,0.00011027,1.467e-05,0.0,0 STARLINK-4494,1 53558U 22101AH  24116.65255815  .00001467  00000-0  11027-3 0  9995,2 53558  53.2186 245.1174 0001390 101.6585 258.4563 15.08839767 93263,6917.881,95.438,540.708,538.785,0.0
53558.0,STARLINK-4494,PAYLOAD,2024-04-26 12:19:42,15.08833209,0.0001529,53.2188,241.256,102.9075,257.2088,2.628e-05,1.3e-06,0.0,0 STARLINK-4494,1 53558U 22101AH  24117.51368715  .00000130  00000-0  26280-4 0  9999,2 53558  53.2188 241.2560 0001529 102.9075 257.2088 15.08833209 93391,6917.901,95.438,540.824,538.708,0.0
53558.0,STARLINK-4494,PAYLOAD,2024-04-26 13:55:05,15.0883444,0.0001712,53.2186,240.9554,79.8845,280.234,6.7943e-05,7.93e-06,0.0,0 STARLINK-4494,1 53558U 22101AH  24117.57992827  .00000793  00000-0  67943-4 0  9998,2 53558  53.2186 240.9554 0001712  79.8845 280.2340 15.08834440 94069,6917.897,95.438,540.947,538.578,0.0
53558.0,STARLINK-4494,PAYLOAD,2024-04-26 15:30:28,15.08849728,0.0001587,53.2185,240.658,103.0689,257.0481,0.00028692,4.282e-05,0.0,0 STARLINK-4494,1 53558U 22101AH  24117.64616054  .00004282  00000-0  28692-3 0  9995,2 53558  53.2185 240.6580 0001587 103.0689 257.0481 15.08849728 93411,6917.851,95.437,540.814,538.618,0.0
53558.0,STARLINK-4494,PAYLOAD,2024-04-27 13:45:51,15.08857697,0.0001685,53.218,236.4938,93.8526,266.2658,0.00024169,3.562e-05,0.0,0 STARLINK-4494,1 53558U 22101AH  24118.57351086  .00003562  00000-0  24169-3 0  9994,2 53558  53.2180 236.4938 0001685  93.8526 266.2658 15.08857697 94212,6917.826,95.436,540.857,538.526,0.0
53558.0,STARLINK-4494,PAYLOAD,2024-04-27 16:56:36,15.0887265,0.0001331,53.2174,235.8951,96.414,263.7004,0.00039358,5.987e-05,0.0,0 STARLINK-4494,1 53558U 22101AH  24118.70597982  .00005987  00000-0  39358-3 0  9995,2 53558  53.2174 235.8951 0001331  96.4140 263.7004 15.08872650 93573,6917.781,95.435,540.566,538.725,0.0
53558.0,STARLINK-4494,PAYLOAD,2024-04-28 12:01:16,15.08833702,0.000191,53.2168,232.3293,79.4286,280.6922,-0.00031315,-5.268e-05,0.0,0 STARLINK-4494,1 53558U 22101AH  24119.50088118 -.00005268  00000-0 -31315-3 0  9999,2 53558  53.2168 232.3293 0001910  79.4286 280.6922 15.08833702 93697,6917.9,95.438,541.086,538.443,0.0
53558.0,STARLINK-4494,PAYLOAD,2024-04-28 13:36:39,15.08832782,0.0001695,53.2179,232.0331,78.4105,281.7078,-0.00031021,-5.221e-05,0.0,0 STARLINK-4494,1 53558U 22101AH  24119.56712169 -.00005221  00000-0 -31021-3 0  9998,2 53558  53.2179 232.0331 0001695  78.4105 281.7078 15.08832782 94364,6917.902,95.438,540.94,538.595,0.0
53558.0,STARLINK-4494,PAYLOAD,2024-04-28 15:12:02,15.08836939,0.0001334,53.2166,231.7351,67.1516,292.9617,-0.0002125,-3.668e-05,0.0,0 STARLINK-4494,1 53558U 22101AH  24119.63335883 -.00003668  00000-0 -21250-3 0  9996,2 53558  53.2166 231.7351 0001334  67.1516 292.9617 15.08836939 94371,6917.89,95.438,540.678,538.832,0.0
53558.0,STARLINK-4494,PAYLOAD,2024-04-29 13:27:26,15.08830098,0.000143,53.2163,227.5724,82.5599,277.5555,-0.0001546,-2.747e-05,0.0,0 STARLINK-4494,1 53558U 22101AH  24120.56072751 -.00002747  00000-0 -15460-3 0  9995,2 53558  53.2163 227.5724 0001430  82.5599 277.5555 15.08830098 93856,6917.911,95.438,540.765,538.786,0.0
53558.0,STARLINK-4494,PAYLOAD,2024-04-30 00:35:07,15.08852268,0.0001353,53.218,225.4908,84.2901,275.8246,-0.00011806,-2.167e-05,0.0,0 STARLINK-4494,1 53558U 22101AH  24121.02439774 -.00002167  00000-0 -11806-3 0  9995,2 53558  53.2180 225.4908 0001353  84.2901 275.8246 15.08852268 93925,6917.843,95.437,540.644,538.772,0.0
53558.0,STARLINK-4494,PAYLOAD,2024-04-30 13:18:13,15.08842467,0.0001337,53.2179,223.1114,80.7146,279.3997,0.00025927,3.841e-05,0.0,0 STARLINK-4494,1 53558U 22101AH  24121.55431994  .00003841  00000-0  25927-3 0  9996,2 53558  53.2179 223.1114 0001337  80.7146 279.3997 15.08842467 94003,6917.873,95.437,540.663,538.813,0.0
53558.0,STARLINK-4494,PAYLOAD,2024-05-01 13:09:00,15.08839775,0.0001369,53.2176,218.6506,82.659,277.4558,0.00018586,2.671e-05,0.0,0 STARLINK-4494,1 53558U 22101AH  24122.54792458  .00002671  00000-0  18586-3 0  9994,2 53558  53.2176 218.6506 0001369  82.6590 277.4558 15.08839775 94159,6917.881,95.438,540.693,538.799,0.0
53558.0,STARLINK-4494,PAYLOAD,2024-05-02 12:59:47,15.08841353,0.0001263,53.2171,214.1893,78.338,281.7754,-3.9921e-05,-9.23e-06,0.0,0 STARLINK-4494,1 53558U 22101AH  24123.54152645 -.00000923  00000-0 -39921-4 0  9990,2 53558  53.2171 214.1893 0001263  78.3380 281.7754 15.08841353 94966,6917.876,95.437,540.615,538.868,0.0
53558.0,STARLINK-4494,PAYLOAD,2024-05-03 12:50:33,15.08854526,0.0001205,53.217,209.7314,86.0452,274.0678,0.00021785,3.182e-05,0.0,0 STARLINK-4494,1 53558U 22101AH  24124.53510673  .00003182  00000-0  21785-3 0  9995,2 53558  53.2170 209.7314 0001205  86.0452 274.0678 15.08854526 94455,6917.836,95.437,540.535,538.867,0.0
53558.0,STARLINK-4494,PAYLOAD,2024-05-03 22:22:52,15.08844169,0.0001257,53.2171,207.9441,66.1794,293.933,0.00011796,1.59e-05,0.0,0 STARLINK-4494,1 53558U 22101AH  24124.93255441  .00001590  00000-0  11796-3 0  9990,2 53558  53.2171 207.9441 0001257  66.1794 293.9330 15.08844169 95179,6917.868,95.437,540.602,538.863,0.0
53558.0,STARLINK-4494,PAYLOAD,2024-05-04 04:44:26,15.08830879,0.0001891,53.2167,206.7587,80.5289,279.5916,3.1292e-05,2.1e-06,0.0,0 STARLINK-4494,1 53558U 22101AH  24125.19752914  .00000210  00000-0  31292-4 0  9998,2 53558  53.2167 206.7587 0001891  80.5289 279.5916 15.08830879 94559,6917.908,95.438,541.081,538.465,0.0
53558.0,STARLINK-4494,PAYLOAD,2024-05-04 12:41:23,15.08822753,0.0001306,53.2167,205.2715,80.8165,279.2975,-9.2368e-06,-4.35e-06,0.0,0 STARLINK-4494,1 53558U 22101AH  24125.52874005 -.00000435  00000-0 -92368-5 0  9994,2 53558  53.2167 205.2715 0001306  80.8165 279.2975 15.08822753 94603,6917.933,95.439,540.702,538.895,0.0
53558.0,STARLINK-4494,PAYLOAD,2024-05-04 15:52:08,15.08823969,0.0001535,53.2162,204.6753,71.0245,289.0913,-0.00013459,-2.428e-05,0.0,0 STARLINK-4494,1 53558U 22101AH  24125.66121326 -.00002428  00000-0 -13459-3 0  9996,2 53558  53.2162 204.6753 0001535  71.0245 289.0913 15.08823969 94621,6917.929,95.439,540.856,538.732,0.0
53558.0,STARLINK-4494,PAYLOAD,2024-05-04 22:13:41,15.08830896,0.0001364,53.216,203.4873,75.2888,284.8255,-5.149e-05,-1.107e-05,0.0,0 STARLINK-4494,1 53558U 22101AH  24125.92616907 -.00001107  00000-0 -51490-4 0  9990,2 53558  53.2160 203.4873 0001364  75.2888 284.8255 15.08830896 94661,6917.908,95.438,540.717,538.83,0.0
53558.0,STARLINK-4494,PAYLOAD,2024-05-05 14:07:32,15.08846936,0.0001293,53.2159,200.5132,68.9447,291.1683,0.0010912,0.00017124,0.0,0 STARLINK-4494,1 53558U 22101AH  24126.58857272  .00017124  00000-0  10912-2 0  9991,2 53558  53.2159 200.5132 0001293  68.9447 291.1683 15.08846936 95429,6917.859,95.437,540.619,538.83,0.0
53558.0,STARLINK-4494,PAYLOAD,2024-05-05 22:04:28,15.08852595,0.0001302,53.2159,199.0266,69.989,290.1242,0.00097557,0.00015278,0.0,0 STARLINK-4494,1 53558U 22101AH  24126.91977176  .00015278  00000-0  97557-3 0  9993,2 53558  53.2159 199.0266 0001302  69.9890 290.1242 15.08852595 95476,6917.842,95.437,540.608,538.806,0.0
53558.0,STARLINK-4494,PAYLOAD,2024-05-06 12:22:55,15.08866578,0.0001335,53.2155,196.3505,69.653,290.4605,0.00098252,0.00015395,0.0,0 STARLINK-4494,1 53558U 22101AH  24127.51592514  .00015395  00000-0  98252-3 0  9992,2 53558  53.2155 196.3505 0001335  69.6530 290.4605 15.08866578 94901,6917.799,95.436,540.588,538.741,0.0
53558.0,STARLINK-4494,PAYLOAD,2024-05-07 04:16:47,15.08859919,0.0001754,53.2152,193.3774,60.8063,299.3105,0.00075837,0.00011809,0.0,0 STARLINK-4494,1 53558U 22101AH  24128.17832485  .00011809  00000-0  75837-3 0  9999,2 53558  53.2152 193.3774 0001754  60.8063 299.3105 15.08859919 95008,6917.82,95.436,540.898,538.471,0.0
53558.0,STARLINK-4494,PAYLOAD,2024-05-07 10:38:19,15.08853856,0.0001278,53.2155,192.1875,73.1814,286.9318,0.0004745,7.275e-05,0.0,0 STARLINK-4494,1 53558U 22101AH  24128.44328290  .00007275  00000-0  47450-3 0  9995,2 53558  53.2155 192.1875 0001278  73.1814 286.9318 15.08853856 95048,6917.838,95.437,540.587,538.819,0.0
53558.0,STARLINK-4494,PAYLOAD,2024-05-07 13:49:05,15.08850682,0.0001241,53.2153,191.5923,74.1249,285.988,0.00025188,3.724e-05,0.0,0 STARLINK-4494,1 53558U 22101AH  24128.57576286  .00003724  00000-0  25188-3 0  9998,2 53558  53.2153 191.5923 0001241  74.1249 285.9880 15.08850682 95728,6917.848,95.437,540.571,538.854,0.0
53558.0,STARLINK-4494,PAYLOAD,2024-05-08 04:07:34,15.08838485,0.0001369,53.2148,188.9169,69.2821,290.8317,0.00017994,2.577e-05,0.0,0 STARLINK-4494,1 53558U 22101AH  24129.17192779  .00002577  00000-0  17994-3 0  9997,2 53558  53.2148 188.9169 0001369  69.2821 290.8317 15.08838485 95150,6917.885,95.438,540.697,538.803,0.0
53558.0,STARLINK-4494,PAYLOAD,2024-05-08 10:29:07,15.0884066,0.0001302,53.2147,187.7265,76.9157,283.198,0.0004109,6.258e-05,0.0,0 STARLINK-4494,1 53558U 22101AH  24129.43688917  .00006258  00000-0  41090-3 0  9994,2 53558  53.2147 187.7265 0001302  76.9157 283.1980 15.08840660 95853,6917.878,95.438,540.644,538.843,0.0
53558.0,STARLINK-4494,PAYLOAD,2024-05-09 10:19:54,15.08849815,0.000133,53.2153,183.2658,84.6386,275.4757,0.00038915,5.912e-05,0.0,0 STARLINK-4494,1 53558U 22101AH  24130.43048741  .00005912  00000-0  38915-3 0  9999,2 53558  53.2153 183.2658 0001330  84.6386 275.4757 15.08849815 95349,6917.85,95.437,540.635,538.795,0.0
53558.0,STARLINK-4494,PAYLOAD,2024-05-10 10:10:41,15.08847003,0.0001281,53.2147,178.8047,82.8264,277.2873,0.00022567,3.306e-05,0.0,0 STARLINK-4494,1 53558U 22101AH  24131.42408735  .00003306  00000-0  22567-3 0  9993,2 53558  53.2147 178.8047 0001281  82.8264 277.2873 15.08847003 95496,6917.859,95.437,540.61,538.838,0.0
